CCSDS_OMM_VERS = 2.0
CREATION_DATE  = 
ORIGINATOR     = 

OBJECT_NAME    = 2026-027A
OBJECT_ID      = 2026-027A
CENTER_NAME    = EARTH
REF_FRAME      = TEME
TIME_SYSTEM    = UTC
MEAN_ELEMENT_THEORY = SGP/SGP4

EPOCH          = 2026-02-24T13:57:59.961600
MEAN_MOTION    = 15.17422167
ECCENTRICITY   = .00094182
INCLINATION    = 97.4880
RA_OF_ASC_NODE = 184.7373
ARG_OF_PERICENTER = 242.4001
MEAN_ANOMALY   = 117.6277

EPHEMERIS_TYPE = 0
CLASSIFICATION_TYPE = U
NORAD_CAT_ID   = 67746
ELEMENT_SET_NO = 999
REV_AT_EPOCH   = 187
BSTAR          = .42950548E-3
MEAN_MOTION_DOT = .8535E-4
MEAN_MOTION_DDOT = 0

CCSDS_OMM_VERS = 2.0
CREATION_DATE  = 
ORIGINATOR     = 

OBJECT_NAME    = 2026-027B
OBJECT_ID      = 2026-027B
CENTER_NAME    = EARTH
REF_FRAME      = TEME
TIME_SYSTEM    = UTC
MEAN_ELEMENT_THEORY = SGP/SGP4

EPOCH          = 2026-02-24T13:56:48.992640
MEAN_MOTION    = 15.17523285
ECCENTRICITY   = .00095606
INCLINATION    = 97.4876
RA_OF_ASC_NODE = 184.7375
ARG_OF_PERICENTER = 245.1168
MEAN_ANOMALY   = 114.9072

EPHEMERIS_TYPE = 0
CLASSIFICATION_TYPE = U
NORAD_CAT_ID   = 67747
ELEMENT_SET_NO = 999
REV_AT_EPOCH   = 187
BSTAR          = .42891923E-3
MEAN_MOTION_DOT = .8548E-4
MEAN_MOTION_DDOT = 0

CCSDS_OMM_VERS = 2.0
CREATION_DATE  = 
ORIGINATOR     = 

OBJECT_NAME    = 2026-027C
OBJECT_ID      = 2026-027C
CENTER_NAME    = EARTH
REF_FRAME      = TEME
TIME_SYSTEM    = UTC
MEAN_ELEMENT_THEORY = SGP/SGP4

EPOCH          = 2026-02-24T13:55:23.172384
MEAN_MOTION    = 15.17613401
ECCENTRICITY   = .00099115
INCLINATION    = 97.4888
RA_OF_ASC_NODE = 184.7408
ARG_OF_PERICENTER = 248.0838
MEAN_ANOMALY   = 111.9342

EPHEMERIS_TYPE = 0
CLASSIFICATION_TYPE = U
NORAD_CAT_ID   = 67748
ELEMENT_SET_NO = 999
REV_AT_EPOCH   = 187
BSTAR          = .30719988E-3
MEAN_MOTION_DOT = .6117E-4
MEAN_MOTION_DDOT = 0

CCSDS_OMM_VERS = 2.0
CREATION_DATE  = 
ORIGINATOR     = 

OBJECT_NAME    = 2026-027D
OBJECT_ID      = 2026-027D
CENTER_NAME    = EARTH
REF_FRAME      = TEME
TIME_SYSTEM    = UTC
MEAN_ELEMENT_THEORY = SGP/SGP4

EPOCH          = 2026-02-24T13:53:21.536736
MEAN_MOTION    = 15.17836778
ECCENTRICITY   = .00097477
INCLINATION    = 97.4881
RA_OF_ASC_NODE = 184.7420
ARG_OF_PERICENTER = 252.8017
MEAN_ANOMALY   = 107.2150

EPHEMERIS_TYPE = 0
CLASSIFICATION_TYPE = U
NORAD_CAT_ID   = 67749
ELEMENT_SET_NO = 999
REV_AT_EPOCH   = 182
BSTAR          = .48656748E-3
MEAN_MOTION_DOT = .9796E-4
MEAN_MOTION_DDOT = 0

CCSDS_OMM_VERS = 2.0
CREATION_DATE  = 
ORIGINATOR     = 

OBJECT_NAME    = 2026-027E
OBJECT_ID      = 2026-027E
CENTER_NAME    = EARTH
REF_FRAME      = TEME
TIME_SYSTEM    = UTC
MEAN_ELEMENT_THEORY = SGP/SGP4

EPOCH          = 2026-02-24T15:28:12.934560
MEAN_MOTION    = 15.17829345
ECCENTRICITY   = .00088805
INCLINATION    = 97.4893
RA_OF_ASC_NODE = 184.8092
ARG_OF_PERICENTER = 254.0180
MEAN_ANOMALY   = 106.0075

EPHEMERIS_TYPE = 0
CLASSIFICATION_TYPE = U
NORAD_CAT_ID   = 67750
ELEMENT_SET_NO = 999
REV_AT_EPOCH   = 188
BSTAR          = .43597438E-3
MEAN_MOTION_DOT = .8765E-4
MEAN_MOTION_DDOT = 0

CCSDS_OMM_VERS = 2.0
CREATION_DATE  = 
ORIGINATOR     = 

OBJECT_NAME    = 2026-027F
OBJECT_ID      = 2026-027F
CENTER_NAME    = EARTH
REF_FRAME      = TEME
TIME_SYSTEM    = UTC
MEAN_ELEMENT_THEORY = SGP/SGP4

EPOCH          = 2026-02-24T13:52:12.523872
MEAN_MOTION    = 15.17991136
ECCENTRICITY   = .00100658
INCLINATION    = 97.4893
RA_OF_ASC_NODE = 184.7453
ARG_OF_PERICENTER = 253.9501
MEAN_ANOMALY   = 106.0624

EPHEMERIS_TYPE = 0
CLASSIFICATION_TYPE = U
NORAD_CAT_ID   = 67751
ELEMENT_SET_NO = 999
REV_AT_EPOCH   = 187
BSTAR          = .6916448E-3
MEAN_MOTION_DOT = .14025E-3
MEAN_MOTION_DDOT = 0

CCSDS_OMM_VERS = 2.0
CREATION_DATE  = 
ORIGINATOR     = 

OBJECT_NAME    = 2026-027G
OBJECT_ID      = 2026-027G
CENTER_NAME    = EARTH
REF_FRAME      = TEME
TIME_SYSTEM    = UTC
MEAN_ELEMENT_THEORY = SGP/SGP4

EPOCH          = 2026-02-24T13:52:16.067136
MEAN_MOTION    = 15.17922105
ECCENTRICITY   = .00092014
INCLINATION    = 97.4888
RA_OF_ASC_NODE = 184.7439
ARG_OF_PERICENTER = 256.5274
MEAN_ANOMALY   = 103.4935

EPHEMERIS_TYPE = 0
CLASSIFICATION_TYPE = U
NORAD_CAT_ID   = 67752
ELEMENT_SET_NO = 999
REV_AT_EPOCH   = 187
BSTAR          = .45652397E-3
MEAN_MOTION_DOT = .9208E-4
MEAN_MOTION_DDOT = 0

CCSDS_OMM_VERS = 2.0
CREATION_DATE  = 
ORIGINATOR     = 

OBJECT_NAME    = 2026-027H
OBJECT_ID      = 2026-027H
CENTER_NAME    = EARTH
REF_FRAME      = TEME
TIME_SYSTEM    = UTC
MEAN_ELEMENT_THEORY = SGP/SGP4

EPOCH          = 2026-02-24T15:08:12.616512
MEAN_MOTION    = 15.64399106
ECCENTRICITY   = .02511356
INCLINATION    = 97.5125
RA_OF_ASC_NODE = 185.6814
ARG_OF_PERICENTER = 293.3252
MEAN_ANOMALY   = 64.1762

EPHEMERIS_TYPE = 0
CLASSIFICATION_TYPE = U
NORAD_CAT_ID   = 67753
ELEMENT_SET_NO = 999
REV_AT_EPOCH   = 193
BSTAR          = .59319657E-3
MEAN_MOTION_DOT = .34058E-2
MEAN_MOTION_DDOT = .2356915E-5

CCSDS_OMM_VERS = 2.0
CREATION_DATE  = 
ORIGINATOR     = 

OBJECT_NAME    = 2026-027J
OBJECT_ID      = 2026-027J
CENTER_NAME    = EARTH
REF_FRAME      = TEME
TIME_SYSTEM    = UTC
MEAN_ELEMENT_THEORY = SGP/SGP4

EPOCH          = 2026-02-24T14:09:22.372128
MEAN_MOTION    = 15.75364537
ECCENTRICITY   = .02130954
INCLINATION    = 97.5083
RA_OF_ASC_NODE = 185.7349
ARG_OF_PERICENTER = 292.3192
MEAN_ANOMALY   = 65.5607

EPHEMERIS_TYPE = 0
CLASSIFICATION_TYPE = U
NORAD_CAT_ID   = 67754
ELEMENT_SET_NO = 999
REV_AT_EPOCH   = 187
BSTAR          = .11921502E-2
MEAN_MOTION_DOT = .863082E-2
MEAN_MOTION_DDOT = .2404812E-5

CCSDS_OMM_VERS = 2.0
CREATION_DATE  = 
ORIGINATOR     = 

OBJECT_NAME    = 2026-028A
OBJECT_ID      = 2026-028A
CENTER_NAME    = EARTH
REF_FRAME      = TEME
TIME_SYSTEM    = UTC
MEAN_ELEMENT_THEORY = SGP/SGP4

EPOCH          = 2026-02-24T06:49:14.640672
MEAN_MOTION    = 0.99526642
ECCENTRICITY   = .00420269
INCLINATION    = 0.5020
RA_OF_ASC_NODE = 288.7996
ARG_OF_PERICENTER = 230.0258
MEAN_ANOMALY   = 201.3257

EPHEMERIS_TYPE = 0
CLASSIFICATION_TYPE = U
NORAD_CAT_ID   = 67756
ELEMENT_SET_NO = 999
REV_AT_EPOCH   = 12
BSTAR          = 0
MEAN_MOTION_DOT = -.189E-5
MEAN_MOTION_DDOT = 0

CCSDS_OMM_VERS = 2.0
CREATION_DATE  = 
ORIGINATOR     = 

OBJECT_NAME    = KUIPER-00159
OBJECT_ID      = 2026-030A
CENTER_NAME    = EARTH
REF_FRAME      = TEME
TIME_SYSTEM    = UTC
MEAN_ELEMENT_THEORY = SGP/SGP4

EPOCH          = 2026-02-24T14:45:21.890016
MEAN_MOTION    = 15.35114598
ECCENTRICITY   = .00040585
INCLINATION    = 51.8854
RA_OF_ASC_NODE = 282.1891
ARG_OF_PERICENTER = 16.9433
MEAN_ANOMALY   = 343.1687

EPHEMERIS_TYPE = 0
CLASSIFICATION_TYPE = U
NORAD_CAT_ID   = 67764
ELEMENT_SET_NO = 999
REV_AT_EPOCH   = 308
BSTAR          = .86258993E-3
MEAN_MOTION_DOT = .29585E-3
MEAN_MOTION_DDOT = 0

CCSDS_OMM_VERS = 2.0
CREATION_DATE  = 
ORIGINATOR     = 

OBJECT_NAME    = KUIPER-00160
OBJECT_ID      = 2026-030B
CENTER_NAME    = EARTH
REF_FRAME      = TEME
TIME_SYSTEM    = UTC
MEAN_ELEMENT_THEORY = SGP/SGP4

EPOCH          = 2026-02-24T14:46:17.178240
MEAN_MOTION    = 15.35042023
ECCENTRICITY   = .00042516
INCLINATION    = 51.8824
RA_OF_ASC_NODE = 282.1880
ARG_OF_PERICENTER = 25.5938
MEAN_ANOMALY   = 334.5258

EPHEMERIS_TYPE = 0
CLASSIFICATION_TYPE = U
NORAD_CAT_ID   = 67765
ELEMENT_SET_NO = 999
REV_AT_EPOCH   = 308
BSTAR          = .73853315E-3
MEAN_MOTION_DOT = .25202E-3
MEAN_MOTION_DDOT = 0

