2026-027A               
1 67746U 26027A   26055.58194400  .00008535  00000+0  42951-3 0  9990
2 67746  97.4880 184.7373 0009418 242.4001 117.6277 15.17422167  1879
2026-027B               
1 67747U 26027B   26055.58112260  .00008548  00000+0  42892-3 0  9993
2 67747  97.4876 184.7375 0009560 245.1168 114.9072 15.17523285  1875
2026-027C               
1 67748U 26027C   26055.58012931  .00006117  00000+0  30720-3 0  9995
2 67748  97.4888 184.7408 0009911 248.0838 111.9342 15.17613401  1879
2026-027D               
1 67749U 26027D   26055.57872149  .00009796  00000+0  48657-3 0  9994
2 67749  97.4881 184.7420 0009747 252.8017 107.2150 15.17836778  1820
2026-027E               
1 67750U 26027E   26055.64459415  .00008765  00000+0  43597-3 0  9994
2 67750  97.4893 184.8092 0008880 254.0180 106.0075 15.17829345  1884
2026-027F               
1 67751U 26027F   26055.57792273  .00014025  00000+0  69164-3 0  9993
2 67751  97.4893 184.7453 0010065 253.9501 106.0624 15.17991136  1875
2026-027G               
1 67752U 26027G   26055.57796374  .00009208  00000+0  45652-3 0  9993
2 67752  97.4888 184.7439 0009201 256.5274 103.4935 15.17922105  1876
2026-027H               
1 67753U 26027H   26055.63070158  .00340580  23569-5  59320-3 0  9995
2 67753  97.5125 185.6814 0251135 293.3252  64.1762 15.64399106  1938
2026-027J               
1 67754U 26027J   26055.58984227  .00863082  24048-5  11922-2 0  9996
2 67754  97.5083 185.7349 0213095 292.3192  65.5607 15.75364537  1879
2026-028A               
1 67756U 26028A   26055.28419723 -.00000189  00000+0  00000+0 0  9990
2 67756   0.5020 288.7996 0042026 230.0258 201.3257  0.99526642   129
KUIPER-00159            
1 67764U 26030A   26055.61483669  .00029585  00000+0  86259-3 0  9993
2 67764  51.8854 282.1891 0004058  16.9433 343.1687 15.35114598  3082
KUIPER-00160            
1 67765U 26030B   26055.61547660  .00025202  00000+0  73853-3 0  9994
2 67765  51.8824 282.1880 0004251  25.5938 334.5258 15.35042023  3080
